NORAD_CAT_ID,OBJECT_NAME,OBJECT_TYPE,EPOCH,MEAN_MOTION,ECCENTRICITY,INCLINATION,RA_OF_ASC_NODE,ARG_OF_PERICENTER,MEAN_ANOMALY,BSTAR,MEAN_MOTION_DOT,MEAN_MOTION_DDOT,TLE_LINE0,TLE_LINE1,TLE_LINE2,SEMIMAJOR_AXIS,PERIOD,APOGEE,PERIGEE,DECAYED
53746.0,STARLINK-4589,PAYLOAD,2022-09-12 16:00:00,15.78028122,0.0001007,53.2174,235.7129,93.1877,353.9039,-0.0077583,-0.01195287,0.0,0 STARLINK-4589,1 53746U 22107AY  22255.66667824 -.01195287  00000-0 -77583-2 0  9995,2 53746  53.2174 235.7129 0001007  93.1877 353.9039 15.78028122  1303,6714.165,91.253,336.706,335.3540000000001,0.0
53746.0,STARLINK-4589,PAYLOAD,2022-09-12 22:00:00,15.77403607,0.0001091,53.2161,234.4665,67.8037,0.0168,-0.0081986,-0.01224253,0.0,0 STARLINK-4589,1 53746U 22107AY  22255.91667824 -.01224253  00000-0 -81986-2 0  9991,2 53746  53.2161 234.4665 0001091  67.8037   0.0168 15.77403607  1306,6715.937,91.289,338.535,337.069,0.0
53746.0,STARLINK-4589,PAYLOAD,2022-09-13 06:00:00,15.76509301,0.0001317,53.2173,232.81,60.7416,100.5082,-0.0082984,-0.01194349,0.0,0 STARLINK-4589,1 53746U 22107AY  22256.25001157 -.01194349  00000-0 -82984-2 0  9991,2 53746  53.2173 232.8100 0001317  60.7416 100.5082 15.76509301  1396,6718.477,91.341,341.227,339.457,0.0
53746.0,STARLINK-4589,PAYLOAD,2022-09-13 14:00:01,15.75642928,0.0001143,53.2174,231.1526,67.0133,186.6077,-0.0086465,-0.01196977,0.0,0 STARLINK-4589,1 53746U 22107AY  22256.58334491 -.01196977  00000-0 -86465-2 0  9994,2 53746  53.2174 231.1526 0001143  67.0133 186.6077 15.75642928  1306,6720.939,91.391,343.57199999999995,342.036,0.0
53746.0,STARLINK-4589,PAYLOAD,2022-09-13 20:00:01,15.74989775,0.0001190999999999,53.2173,229.9102,72.4856,159.7308,-0.0088687,-0.01193327,0.0,0 STARLINK-4589,1 53746U 22107AY  22256.83334491 -.01193327  00000-0 -88687-2 0  9996,2 53746  53.2173 229.9102 0001191  72.4856 159.7308 15.74989775  1485,6722.797,91.429,345.463,343.862,0.0
53746.0,STARLINK-4589,PAYLOAD,2022-09-13 22:00:00,15.74772812,0.0001171999999999,53.2177,229.4969,117.9772,226.9733,-0.0089608,-0.01194154,0.0,0 STARLINK-4589,1 53746U 22107AY  22256.91667824 -.01194154  00000-0 -89608-2 0  9997,2 53746  53.2177 229.4969 0001172 117.9772 226.9733 15.74772812  1308,6723.415,91.442,346.0680000000001,344.492,0.0
53746.0,STARLINK-4589,PAYLOAD,2022-09-14 04:00:00,15.739888199999998,0.0001359,53.2175,228.2593,112.1186,210.6651,-0.0061833,-0.00816083,0.0,0 STARLINK-4589,1 53746U 22107AY  22257.16667824 -.00816083  00000-0 -61833-2 0  9996,2 53746  53.2175 228.2593 0001359 112.1186 210.6651 15.73988820  1530,6725.647,91.487,348.426,346.598,0.0
53746.0,STARLINK-4589,PAYLOAD,2022-09-14 14:00:01,15.73326839,9.940000000000004e-05,53.2135,226.1952,103.0044,61.4721,-0.00028883,-0.00041177,0.0,0 STARLINK-4589,1 53746U 22107AY  22257.58334491 -.00041177  00000-0 -28883-3 0  9996,2 53746  53.2135 226.1952 0000994 103.0044  61.4721 15.73326839  1602,6727.534000000002,91.526,350.06699999999995,348.73,0.0
53746.0,STARLINK-4589,PAYLOAD,2022-09-14 22:00:00,15.73308527,0.0001053,53.2142,224.5444,115.3818,138.166,-0.00060071,-0.00084472,0.0,0 STARLINK-4589,1 53746U 22107AY  22257.91667824 -.00084472  00000-0 -60071-3 0  9992,2 53746  53.2142 224.5444 0001053 115.3818 138.1660 15.73308527  1305,6727.5859999999975,91.527,350.159,348.742,0.0
53746.0,STARLINK-4589,PAYLOAD,2022-09-15 14:00:01,15.73204929,0.0001100999999999,53.2144,221.2461,104.882,326.6398,-0.00054529,-0.0007647,0.0,0 STARLINK-4589,1 53746U 22107AY  22258.58334491 -.00076470  00000-0 -54529-3 0  9997,2 53746  53.2144 221.2461 0001101 104.8820 326.6398 15.73204929  1303,6727.880999999999,91.533,350.487,349.005,0.0
53746.0,STARLINK-4589,PAYLOAD,2022-09-15 22:00:00,15.73153406,0.000126,53.2145,219.5958,112.8313,47.5911,1.917e-05,2.066e-05,0.0,0 STARLINK-4589,1 53746U 22107AY  22258.91667824  .00002066  00000-0  19170-4 0  9995,2 53746  53.2145 219.5958 0001260 112.8313  47.5911 15.73153406  1300,6728.028,91.536,350.741,349.045,0.0
53746.0,STARLINK-4589,PAYLOAD,2022-09-16 00:00:00,15.73180269,0.0001200999999999,53.2144,219.1841,111.4868,161.1468,-0.00045719,-0.0006424,0.0,0 STARLINK-4589,1 53746U 22107AY  22259.00001157 -.00064240  00000-0 -45719-3 0  9998,2 53746  53.2144 219.1841 0001201 111.4868 161.1468 15.73180269  1825,6727.951,91.534,350.624,349.0080000000001,0.0
53746.0,STARLINK-4589,PAYLOAD,2022-09-16 14:00:01,15.73149326,0.0001038,53.2136,216.2978,114.2145,223.9202,0.00021691,0.00029864,0.0,0 STARLINK-4589,1 53746U 22107AY  22259.58334491  .00029864  00000-0  21691-3 0  9995,2 53746  53.2136 216.2978 0001038 114.2145 223.9202 15.73149326  1307,6728.04,91.536,350.603,349.206,0.0
53746.0,STARLINK-4589,PAYLOAD,2022-09-16 16:00:00,15.73135366,0.0001038,53.2136,215.885,120.3498,330.0081,0.00055609,0.00077933,0.0,0 STARLINK-4589,1 53746U 22107AY  22259.66667824  .00077933  00000-0  55609-3 0  9999,2 53746  53.2136 215.8850 0001038 120.3498 330.0081 15.73135366  1933,6728.079000000002,91.537,350.64300000000014,349.246,0.0
53746.0,STARLINK-4589,PAYLOAD,2022-09-16 22:00:00,15.73182887,0.0001146,53.2138,214.6478,121.653,305.3549,0.00041597,0.0005812,0.0,0 STARLINK-4589,1 53746U 22107AY  22259.91667824  .00058120  00000-0  41597-3 0  9995,2 53746  53.2138 214.6478 0001146 121.6530 305.3549 15.73182887  1304,6727.944,91.534,350.58,349.038,0.0
53746.0,STARLINK-4589,PAYLOAD,2022-09-17 14:00:01,15.73233427,0.000124,53.2139,211.3491,111.1789,133.7379,-0.00017923,-0.00025733,0.0,0 STARLINK-4589,1 53746U 22107AY  22260.58334491 -.00025733  00000-0 -17923-3 0  9993,2 53746  53.2139 211.3491 0001240 111.1789 133.7379 15.73233427  1300,6727.8,91.531,350.499,348.831,0.0
53746.0,STARLINK-4589,PAYLOAD,2022-09-17 22:00:00,15.73257129,0.00015,53.214,209.6991,113.4928,220.3728,-0.00051152,-0.00071974,0.0,0 STARLINK-4589,1 53746U 22107AY  22260.91667824 -.00071974  00000-0 -51152-3 0  9999,2 53746  53.2140 209.6991 0001500 113.4928 220.3728 15.73257129  1302,6727.732,91.53,350.606,348.588,0.0
53746.0,STARLINK-4589,PAYLOAD,2022-09-18 04:00:00,15.73189363,0.0001533,53.2135,208.4636,104.8521,205.7489,0.00033658,0.00046859,0.0,0 STARLINK-4589,1 53746U 22107AY  22261.16667824  .00046859  00000-0  33658-3 0  9990,2 53746  53.2135 208.4636 0001533 104.8521 205.7489 15.73189363  2168,6727.926,91.534,350.82199999999995,348.759,0.0
53746.0,STARLINK-4589,PAYLOAD,2022-09-18 14:00:01,15.73205901,0.0001329,53.2132,206.4001,117.6794,34.1785,6.6129999999999975e-06,3.08e-06,0.0,0 STARLINK-4589,1 53746U 22107AY  22261.58335648  .00000308  00000-0  66130-5 0  9994,2 53746  53.2132 206.4001 0001329 117.6794  34.1785 15.73205901  1301,6727.878000000002,91.533,350.63699999999994,348.849,0.0
53746.0,STARLINK-4589,PAYLOAD,2022-09-18 22:00:00,15.73236174,0.000135,53.2134,204.7505,126.0873,114.6321,0.00023751,0.00032895,0.0,0 STARLINK-4589,1 53746U 22107AY  22261.91667824  .00032895  00000-0  23751-3 0  9991,2 53746  53.2134 204.7505 0001350 126.0873 114.6321 15.73236174  2283,6727.792,91.531,350.565,348.749,0.0
53746.0,STARLINK-4589,PAYLOAD,2022-09-19 14:00:01,15.732076199999998,0.0001157,53.2138,201.4512,127.2262,291.4592,-0.00013215,-0.0001913,0.0,0 STARLINK-4589,1 53746U 22107AY  22262.58334491 -.00019130  00000-0 -13215-3 0  9999,2 53746  53.2138 201.4512 0001157 127.2262 291.4592 15.73207620  2388,6727.873000000001,91.533,350.517,348.96,0.0
53746.0,STARLINK-4589,PAYLOAD,2022-09-19 22:00:00,15.73195888,0.0001197,53.2138,199.8016,129.3995,18.2271,4.8674e-05,6.215e-05,0.0,0 STARLINK-4589,1 53746U 22107AY  22262.91667824  .00006215  00000-0  48674-4 0  9991,2 53746  53.2138 199.8016 0001197 129.3995  18.2271 15.73195888  1309,6727.906999999997,91.533,350.577,348.967,0.0
53746.0,STARLINK-4589,PAYLOAD,2022-09-20 06:00:00,15.73192538,0.0001069,53.2135,198.1538,117.7265,118.8262,4.5852e-05,5.818e-05,0.0,0 STARLINK-4589,1 53746U 22107AY  22263.25001157  .00005818  00000-0  45852-4 0  9993,2 53746  53.2135 198.1538 0001069 117.7265 118.8262 15.73192538  2493,6727.916,91.534,350.501,349.06199999999984,0.0
53746.0,STARLINK-4589,PAYLOAD,2022-09-20 14:00:01,15.73172734,0.0001268,53.2133,196.5023,129.1891,196.2876,0.00047984,0.00067184,0.0,0 STARLINK-4589,1 53746U 22107AY  22263.58334491  .00067184  00000-0  47984-3 0  9990,2 53746  53.2133 196.5023 0001268 129.1891 196.2876 15.73172734  1301,6727.973000000001,91.535,350.691,348.985,0.0
53746.0,STARLINK-4589,PAYLOAD,2022-09-20 22:00:01,15.73272025,0.000126,53.2136,194.853,133.2681,281.186,-0.00050318,-0.00070863,0.0,0 STARLINK-4589,1 53746U 22107AY  22263.91668981 -.00070863  00000-0 -50318-3 0  9996,2 53746  53.2136 194.8530 0001260 133.2681 281.1860 15.73272025  1304,6727.69,91.529,350.403,348.707,0.0
53746.0,STARLINK-4589,PAYLOAD,2022-09-21 14:00:01,15.73193771,0.0001283,53.2141,191.5535,130.6564,101.6244,3.3331e-06,-1.52e-06,0.0,0 STARLINK-4589,1 53746U 22107AY  22264.58334491 -.00000152  00000-0  33331-5 0  9997,2 53746  53.2141 191.5535 0001283 130.6564 101.6244 15.73193771  2702,6727.913000000001,91.534,350.641,348.915,0.0
53746.0,STARLINK-4589,PAYLOAD,2022-09-21 22:00:00,15.73183944,0.0001440999999999,53.2142,189.9043,125.9229,195.2833,0.0001592,0.00021765,0.0,0 STARLINK-4589,1 53746U 22107AY  22264.91667824  .00021765  00000-0  15920-3 0  9997,2 53746  53.2142 189.9043 0001441 125.9229 195.2833 15.73183944  1308,6727.941,91.534,350.775,348.836,0.0
53746.0,STARLINK-4589,PAYLOAD,2022-09-22 14:00:01,15.73146269,0.0001224,53.2138,186.6049,139.1279,359.9083,0.0005637,0.00079056,0.0,0 STARLINK-4589,1 53746U 22107AY  22265.58334491  .00079056  00000-0  56370-3 0  9992,2 53746  53.2138 186.6049 0001224 139.1279 359.9083 15.73146269  1309,6728.0480000000025,91.536,350.737,349.09,0.0
53746.0,STARLINK-4589,PAYLOAD,2022-09-22 22:00:00,15.73216808,0.0001283,53.2141,184.9561,137.0664,90.862,0.00020066,0.00027654,0.0,0 STARLINK-4589,1 53746U 22107AY  22265.91667824  .00027654  00000-0  20066-3 0  9998,2 53746  53.2141 184.9561 0001283 137.0664  90.8620 15.73216808  1308,6727.847,91.532,350.575,348.849,0.0
